PERSEUS-M1              
1 40039U 14033AF  26164.82482235  .00001165  00000+0  11032-3 0  9992
2 40039  97.9644 108.9017 0010548 314.3223  45.7131 14.95622915650139
POLYITAN-1              
1 40042U 14033AJ  26164.59326023  .00018854  00000+0  59022-3 0  9996
2 40042  98.0941 190.5143 0008379 151.4693 208.7007 15.33140093653043
TIGRISAT                
1 40043U 14033AK  26164.94927271  .00002176  00000+0  25476-3 0  9994
2 40043  97.7824 315.0351 0050693  85.5733 275.1271 14.85151636645147
AEROCUBE 6A             
1 40045U 14033AM  26164.95109660  .00006435  00000+0  54028-3 0  9998
2 40045  97.7229 331.9340 0039155  28.9778 331.3607 14.98078813646130
AEROCUBE 6B             
1 40046U 14033AN  26164.42275109  .00005856  00000+0  47409-3 0  9994
2 40046  97.7232 331.1933 0038635  22.2270 338.0617 14.99536094646193
CANX-4                  
1 40055U 14034C   26164.90946572  .00000895  00000+0  12200-3 0  9996
2 40055  98.3127  40.1021 0013390  27.1882 333.0028 14.81259366644040
CANX-5                  
1 40056U 14034D   26164.90793700  .00000904  00000+0  12321-3 0  9995
2 40056  98.3128  40.1440 0013404  27.3070 332.8844 14.81276587634859
UKUBE-1                 
1 40074U 14037F   26164.92878973  .00008770  00000+0  49382-3 0  9992
2 40074  98.4230 167.8583 0002483 134.9871 225.1559 15.13508644648061
BRITE-PL2 (HEWELIUSZ)   
1 40119U 14049B   26164.89183339  .00001469  00000+0  14099-3 0  9991
2 40119  97.9094 276.8664 0015177 118.2447 242.0307 14.94583917640955
AEROCUBE 5C             
1 40965U 15058B   26164.68405739  .00002410  00000+0  21937-3 0  9995
2 40965  64.7679 273.4878 0130606  64.6416 296.8154 14.91439290365132
AEROCUBE 7              
1 40966U 15058C   26164.62352787  .00003277  00000+0  26787-3 0  9994
2 40966  64.7630 255.9778 0120314  63.1063 298.2287 14.95704832365427
FOX-1A (AO-85)          
1 40967U 15058D   26164.73051364  .00002516  00000+0  23134-3 0  9992
2 40967  64.7761 289.7255 0130285  57.8943 303.4737 14.90954961113057
SINOD-D 1               
1 40968U 15058E   26164.66876260  .00003460  00000+0  28164-3 0  9992
2 40968  64.7761 269.9304 0118815  54.4829 306.7298 14.95885729116134
SNAP-3 ALICE            
1 40970U 15058G   26164.58306262  .00120940  00000+0  14774-2 0  9990
2 40970  64.7494 116.3819 0029039  14.8133 345.3856 15.59302899116326
LMRST-SAT               
1 40971U 15058H   26164.61784411  .00002363  00000+0  21956-3 0  9990
2 40971  64.7766 286.4068 0131881  60.0183 301.3942 14.90575803113024
SNAP-3 EDDIE            
1 40972U 15058J   26164.96052670  .00137481  00000+0  15930-2 0  9998
2 40972  64.7422 105.8275 0028724  18.7281 341.4914 15.60634570118527
PROPCUBE 3              
1 40973U 15058K   26164.66218728  .00002930  00000+0  24855-3 0  9991
2 40973  64.7689 263.5489 0123866  61.3006 300.0491 14.94240218114271
BISONSAT                
1 40974U 15058L   26164.33938476  .00010852  00000+0  52741-3 0  9992
2 40974  64.7583 186.0846 0078679  48.8392 311.9484 15.16110491115032
SNAP-3 JIMI             
1 40975U 15058M   26164.52787880  .00004581  00000+0  31893-3 0  9992
2 40975  64.7647 231.3502 0105965  56.8578 304.2652 15.02269914113671
PROPCUBE 1 (FLORA)      
1 40976U 15058N   26164.90526547  .00002414  00000+0  23274-3 0  9993
2 40976  64.7755 305.4072 0130589  62.2045 299.2233 14.89208772115777
SINOD-D 3               
1 40977U 15058P   26164.69330117  .00003383  00000+0  28966-3 0  9995
2 40977  64.7735 286.7288 0119084  59.5186 301.7623 14.93996432114232
HORYU-4                 
1 41340U 16012D   26164.24367274  .00411178  59322-4  11265-2 0  9990
2 41340  30.9840 107.9281 0004244 244.6601 115.3620 15.92808659570185
RAVAN                   
1 41849U 16067B   26164.95393872  .00051836  00000+0  78780-3 0  9996
2 41849  97.9896  54.1541 0004887  41.3102 318.8519 15.54393413527191
CELTEE 1                
1 41850U 16067C   26164.58561584  .00005691  00000+0  27051-3 0  9997
2 41850  98.0678  30.9074 0000728 119.4992 240.6314 15.19649941525330
OPTICUBE 04             
1 41851U 16067D   26164.56625164  .00001869  00000+0  12025-3 0  9999
2 41851  98.0701  16.6614 0016779 126.7802 233.4968 15.09645471524622
AEROCUBE 8D             
1 41852U 16067E   26164.61091215  .00007493  00000+0  30933-3 0  9997
2 41852  98.0691  34.5106 0004502 131.9611 228.2008 15.24352008525528
AEROCUBE 8C             
1 41853U 16067F   26164.89901356  .00008053  00000+0  32958-3 0  9996
2 41853  98.0562  32.0527 0006717  78.2053 281.9936 15.24604444525563
CORVUS BC2              
1 42846U 17042X   26164.40831955  .00003675  00000+0  25381-3 0  9994
2 42846  97.4051 325.9054 0014186 122.2810 237.9794 15.06270804486491
CORVUS BC1              
1 42847U 17042Y   26164.93474744  .00004022  00000+0  27618-3 0  9994
2 42847  97.4086 327.2230 0013188  99.1673 261.1047 15.06445971486603
MAKERSAT 0              
1 43016U 17073D   26164.91423525  .00018871  00000+0  51447-3 0  9990
2 43016  97.4636  47.4083 0105274 284.8512  74.1088 15.31998671465964
